[{"OBJECT_NAME":"ONEWEB-0080","OBJECT_ID":"2020-020C","EPOCH":"2026-03-09T22:20:57.148800","MEAN_MOTION":13.11412701,"ECCENTRICITY":0.0002137,"INCLINATION":87.8863,"RA_OF_ASC_NODE":40.7981,"ARG_OF_PERICENTER":88.8299,"MEAN_ANOMALY":271.3074,"EPHEMERIS_TYPE":0,"CLASSIFICATION_TYPE":"U","NORAD_CAT_ID":45426,"ELEMENT_SET_NO":999,"REV_AT_EPOCH":28969,"BSTAR":-0.00089608248,"MEAN_MOTION_DOT":-3.05e-6,"MEAN_MOTION_DDOT":0},{"OBJECT_NAME":"FENGYUN 1C DEB","OBJECT_ID":"1999-025CPF","EPOCH":"2026-03-08T21:32:59.841312","MEAN_MOTION":13.63405411,"ECCENTRICITY":0.02657413,"INCLINATION":98.3852,"RA_OF_ASC_NODE":216.1135,"ARG_OF_PERICENTER":181.6823,"MEAN_ANOMALY":178.3455,"EPHEMERIS_TYPE":0,"CLASSIFICATION_TYPE":"U","NORAD_CAT_ID":31978,"ELEMENT_SET_NO":999,"REV_AT_EPOCH":92764,"BSTAR":0.0024762842,"MEAN_MOTION_DOT":2.443e-5,"MEAN_MOTION_DDOT":0}]
